

*******************************************************************************
Ephemeris / WWW_USER Fri Nov 12 15:24:42 2021 Pasadena, USA      / Horizons
*******************************************************************************
Target body name: Epimetheus (611)                {source: sat415_merged_DE437}
Center body name: Saturn (699)                    {source: sat415_merged_DE437}
Center-site name: BODY CENTER
*******************************************************************************
Start time      : A.D. 2010-Jan-01 00:00:00.0000 TDB
Stop  time      : A.D. 2020-Jan-01 00:00:00.0000 TDB
Step-size       : 1440 minutes
*******************************************************************************
Center geodetic : 0.00000000,0.00000000,0.0000000 {W-lon(deg),Lat(deg),Alt(km)}
Center cylindric: 0.00000000,0.00000000,0.0000000 {W-lon(deg),Dxy(km),Dz(km)}
Center radii    : 60268.0 x 60268.0 x 54364.0 km  {Equator, meridian, pole}    
Output units    : KM-S
Output type     : GEOMETRIC cartesian states
Output format   : 2 (position and velocity)
Reference frame : Ecliptic of J2000.0
*******************************************************************************
            JDTDB,            Calendar Date (TDB),                      X,                      Y,                      Z,                     VX,                     VY,                     VZ,
**************************************************************************************************************************************************************************************************
$$SOE
2457734.500000000, A.D. 2016-Dec-12 00:00:00.0000, -1.495846046228667E+05,  1.371493408884484E+03,  1.273686599507483E+04,  4.440987102658195E-01, -1.417537039360785E+01,  7.401174091681871E+00,
2457735.500000000, A.D. 2016-Dec-13 00:00:00.0000,  1.428453475888041E+05, -5.262431482320752E+04,  1.478179285566652E+04,  5.478291612618423E+00,  1.281999504861595E+01, -7.226141216863338E+00,
2457736.500000000, A.D. 2016-Dec-14 00:00:00.0000, -1.096392921501253E+05,  9.460064984900386E+04, -3.983703272806231E+04, -1.080414617637883E+01, -1.000779553799166E+01,  6.231707783360749E+00,
2457737.500000000, A.D. 2016-Dec-15 00:00:00.0000,  6.786929896407569E+04, -1.232244988635547E+05,  5.866999362099831E+04,  1.410466617417381E+01,  5.614298322597952E+00, -4.222567960824182E+00,
2457738.500000000, A.D. 2016-Dec-16 00:00:00.0000, -7.110420353524637E+03,  1.338554219216322E+05, -6.977075555035510E+04, -1.581824378165691E+01, -2.066079982031832E-01,  1.534940158052921E+00,
2457739.500000000, A.D. 2016-Dec-17 00:00:00.0000, -4.416128604285652E+04, -1.263646307879484E+05,  7.049258819564481E+04,  1.508711913077912E+01, -4.802666769235297E+00,  1.166156268618990E+00,
2457740.500000000, A.D. 2016-Dec-18 00:00:00.0000,  9.950575298579517E+04,  9.805140295870182E+04, -6.062201417193953E+04, -1.195537472089484E+01,  9.507723104660343E+00, -3.926597914547360E+00,
2457741.500000000, A.D. 2016-Dec-19 00:00:00.0000, -1.314108577741291E+05, -5.891907998419474E+04,  4.292742976123864E+04,  7.572511731292561E+00, -1.272270536286185E+01,  6.018120215767792E+00,
2457742.500000000, A.D. 2016-Dec-20 00:00:00.0000,  1.516115896715484E+05,  8.436177064674317E+03, -1.817647499329618E+04, -1.656178142672749E+00,  1.387663071447163E+01, -7.164519330010530E+00,
2457743.500000000, A.D. 2016-Dec-21 00:00:00.0000, -1.437883389846815E+05,  4.200702871189685E+04, -9.114904253149860E+03, -4.364569787105394E+00, -1.345210298200198E+01,  7.489792789134213E+00,
2457744.500000000, A.D. 2016-Dec-22 00:00:00.0000,  1.215772159362564E+05, -8.572702429952694E+04,  3.419169881453002E+04,  9.504122479358442E+00,  1.071425999521065E+01, -6.515714069579387E+00,
2457745.500000000, A.D. 2016-Dec-23 00:00:00.0000, -7.395433973774592E+04,  1.189014872462153E+05, -5.603833810203317E+04, -1.375289854441076E+01, -6.516218976806566E+00,  4.689770231397923E+00,
2457746.500000000, A.D. 2016-Dec-24 00:00:00.0000,  2.534754271913915E+04, -1.331083058158651E+05,  6.798584517930518E+04,  1.559296714959140E+01,  1.631504077111974E+00, -2.281092096176129E+00,
2457747.500000000, A.D. 2016-Dec-25 00:00:00.0000,  3.765420881760491E+04,  1.287672099167561E+05, -7.146576941557818E+04, -1.528991215471470E+01,  3.926040589326414E+00, -6.802502006898586E-01,
2457748.500000000, A.D. 2016-Dec-26 00:00:00.0000, -8.485841283584411E+04, -1.064969967403580E+05,  6.404238946483896E+04,  1.305536584647000E+01, -8.556349691967363E+00,  3.330433134643016E+00,
2457749.500000000, A.D. 2016-Dec-27 00:00:00.0000,  1.285898763015031E+05,  6.759851910204021E+04, -4.751225621882291E+04, -8.445943897731947E+00,  1.201708694958810E+01, -5.582078617586660E+00,
2457750.500000000, A.D. 2016-Dec-28 00:00:00.0000, -1.468440572924667E+05, -1.949771501366665E+04,  2.377579789275009E+04,  3.021005410190875E+00, -1.400866205234525E+01,  7.134154945004705E+00,
2457751.500000000, A.D. 2016-Dec-29 00:00:00.0000,  1.497604690814204E+05, -3.026752084820758E+04,  2.264151192646612E+03,  2.915697985204169E+00,  1.353851380777141E+01, -7.432943682531725E+00,
2457752.500000000, A.D. 2016-Dec-30 00:00:00.0000, -1.248024219309884E+05,  7.863483315488877E+04, -3.014776138540574E+04, -8.730581996833795E+00, -1.145057509137823E+01,  6.865763700607834E+00,
2457753.500000000, A.D. 2016-Dec-31 00:00:00.0000,  8.960761002667526E+04, -1.116225924778650E+05,  5.085713223161592E+04,  1.278792029562435E+01,  7.677597509769063E+00, -5.245344467475448E+00,
2457754.500000000, A.D. 2017-Jan-01 00:00:00.0000, -3.201061945263832E+04,  1.322371271234618E+05, -6.710528914300910E+04, -1.538947605097023E+01, -2.503502826794290E+00,  2.748061739569657E+00,
2457755.500000000, A.D. 2017-Jan-02 00:00:00.0000, -1.995714769053580E+04, -1.312328070616708E+05,  7.140303353870721E+04,  1.572298536506473E+01, -2.587083847327367E+00, -8.424058727404526E-02,
2457756.500000000, A.D. 2017-Jan-03 00:00:00.0000,  7.862318390722698E+04,  1.124986269200552E+05, -6.694113199189994E+04, -1.346494059521880E+01,  7.631578981776149E+00, -2.797219527892663E+00,
2457757.500000000, A.D. 2017-Jan-04 00:00:00.0000, -1.181520335327419E+05, -7.671431082736386E+04,  5.167391051499453E+04,  9.757411266031333E+00, -1.156208515405005E+01,  5.225157790084890E+00,
2457758.500000000, A.D. 2017-Jan-05 00:00:00.0000,  1.465162021134167E+05,  3.150283414777079E+04, -3.036914845441868E+04, -4.271763649800334E+00,  1.351296531942644E+01, -6.771225184388607E+00,
2457759.500000000, A.D. 2017-Jan-06 00:00:00.0000, -1.487489234172756E+05,  2.167585225793662E+04,  2.393313343176533E+03, -1.815079093429840E+00, -1.394922676415922E+01,  7.572469255404815E+00,
2457760.500000000, A.D. 2017-Jan-07 00:00:00.0000,  1.349855018809471E+05, -6.653843927777473E+04,  2.267996203358099E+04,  7.289980715791679E+00,  1.206839887273159E+01, -7.089089600380026E+00,
2457761.500000000, A.D. 2017-Jan-08 00:00:00.0000, -9.470949455240373E+04,  1.077701815637009E+05, -4.833183849773676E+04, -1.221154775946618E+01, -8.425125000051533E+00,  5.619732878074325E+00,
2457762.500000000, A.D. 2017-Jan-09 00:00:00.0000,  4.933232429994686E+04, -1.279214650325666E+05,  6.329584409877432E+04,  1.502105543054406E+01,  3.898527134746555E+00, -3.483817369221345E+00,
2457763.500000000, A.D. 2017-Jan-10 00:00:00.0000,  1.223112370780860E+04,  1.337684983983887E+05, -7.221258948582446E+04, -1.565167301518018E+01,  1.634963358768483E+00,  6.076375325772090E-01,
2457764.500000000, A.D. 2017-Jan-11 00:00:00.0000, -6.392908704977423E+04, -1.173697920538398E+05,  6.840588725312967E+04,  1.438738237665696E+01, -6.646659035283598E+00,  2.171326593805909E+00,
2457765.500000000, A.D. 2017-Jan-12 00:00:00.0000,  1.125488034796252E+05,  8.665806181737049E+04, -5.672120908099983E+04, -1.054884426833710E+01,  1.065567292852552E+01, -4.662996171103852E+00,
2457766.500000000, A.D. 2017-Jan-13 00:00:00.0000, -1.406350920806215E+05, -3.978137208711887E+04,  3.451002782711206E+04,  5.509377510664215E+00, -1.346841288217523E+01,  6.635419017530556E+00,
2457767.500000000, A.D. 2017-Jan-14 00:00:00.0000,  1.519028456559201E+05, -7.405080903445431E+03, -1.053736639279022E+04,  2.779432111411017E-01,  1.389791495545975E+01, -7.414900064707791E+00,
2457768.500000000, A.D. 2017-Jan-15 00:00:00.0000, -1.370958920143043E+05,  6.055553305986754E+04, -1.909865750175578E+04, -6.412343090425455E+00, -1.258091891756733E+01,  7.301694706015329E+00,
2457769.500000000, A.D. 2017-Jan-16 00:00:00.0000,  1.081995685487880E+05, -9.734313930754045E+04,  4.139674820076745E+04,  1.112304516715561E+01,  9.521832192889496E+00, -6.128551949575148E+00,
2457770.500000000, A.D. 2017-Jan-17 00:00:00.0000, -5.660849883351534E+04,  1.269789384132979E+05, -6.208859621113483E+04, -1.453434524697268E+01, -4.723350020501891E+00,  3.907486198726160E+00,
2457771.500000000, A.D. 2017-Jan-18 00:00:00.0000,  4.135603122876664E+03, -1.328094095070003E+05,  7.023222591580370E+04,  1.591907638398621E+01, -3.234049102232397E-01, -1.360544577443152E+00,
2457772.500000000, A.D. 2017-Jan-19 00:00:00.0000,  5.501455822303936E+04,  1.237083880056703E+05, -7.110446241828804E+04, -1.460282071176418E+01,  5.567682394846631E+00, -1.551853829654544E+00,
2457773.500000000, A.D. 2017-Jan-20 00:00:00.0000, -1.022099111204692E+05, -9.260450690040045E+04,  5.914493294440131E+04,  1.166293512941852E+01, -1.010359813779236E+01,  4.245473737332142E+00,
2457774.500000000, A.D. 2017-Jan-21 00:00:00.0000,  1.368326170730368E+05,  5.335177034952687E+04, -4.165316119929745E+04, -6.763804585702555E+00,  1.280256211076553E+01, -6.153606225783949E+00,
2457775.500000000, A.D. 2017-Jan-22 00:00:00.0000, -1.501181020235566E+05,  6.079267583043402E+02,  1.427934308063431E+04,  7.832242985081940E-01, -1.407622611454187E+01,  7.411190941551666E+00,
2457776.500000000, A.D. 2017-Jan-23 00:00:00.0000,  1.440932996068645E+05, -4.603604203301719E+04,  1.043259581213248E+04,  4.883989850715665E+00,  1.310088098949767E+01, -7.444796310987492E+00,
